STARLINK-35768          
1 66832U 25280M   25354.91668981  .00084389  00000+0  13623-2 0  9997
2 66832  69.9997 175.9947 0003202 273.7875  82.7270 15.52469510  4215
STARLINK-35858          
1 66833U 25280N   25354.91668981  .00085789  00000+0  13845-2 0  9999
2 66833  69.9996 175.9928 0003198 269.2051  89.2179 15.52473319  4216
STARLINK-35840          
1 66834U 25280P   25354.91668981  .00076591  00000+0  12374-2 0  9997
2 66834  69.9998 175.9901 0003111 270.3497  89.9796 15.52481130  4214
STARLINK-35890          
1 66835U 25280Q   25354.91668981  .00080639  00000+0  13023-2 0  9998
2 66835  69.9999 175.9877 0003118 273.0924  89.1639 15.52474583  4212
STARLINK-35838          
1 66836U 25280R   25354.91668981  .00081703  00000+0  13195-2 0  9992
2 66836  70.0000 175.9851 0003079 273.5362  90.6457 15.52469770  4215
STARLINK-35729          
1 66837U 25280S   25354.91668981  .00083697  00000+0  13513-2 0  9991
2 66837  70.0001 175.9826 0003474 274.3429  91.7536 15.52469875  4217
STARLINK-35886          
1 66838U 25280T   25354.91668981  .00082535  00000+0  13337-2 0  9996
2 66838  70.0001 175.9778 0002838 280.2720  89.7178 15.52451919  4216
STARLINK-35717          
1 66839U 25280U   25354.91668981  .00093863  00000+0  15132-2 0  9998
2 66839  70.0000 175.9787 0003198 271.7932  96.2128 15.52469758  4214
STARLINK-35837          
1 66840U 25280V   25354.91668981  .00091675  00000+0  14784-2 0  9991
2 66840  69.9999 175.9748 0003116 273.5111  98.3283 15.52469565  4217
STARLINK-35715          
1 66841U 25280W   25354.91668981  .00082987  00000+0  13400-2 0  9992
2 66841  69.9999 175.9737 0003102 272.7851 100.9768 15.52470187  4213
STARLINK-35769          
1 66842U 25280X   25354.91668981  .00082705  00000+0  13355-2 0  9990
2 66842  70.0000 175.9714 0003003 270.7996 104.8801 15.52469999  4213
STARLINK-35997          
1 66843U 25280Y   25354.91668981  .00080450  00000+0  12994-2 0  9994
2 66843  70.0001 175.9659 0003057 273.6272 105.8813 15.52472478  4211
