CCSDS_OMM_VERS = 2.0
CREATION_DATE  = 
ORIGINATOR     = 

OBJECT_NAME    = STARLINK-35768
OBJECT_ID      = 2025-280M
CENTER_NAME    = EARTH
REF_FRAME      = TEME
TIME_SYSTEM    = UTC
MEAN_ELEMENT_THEORY = SGP/SGP4

EPOCH          = 2025-12-20T22:00:01.999584
MEAN_MOTION    = 15.52469510
ECCENTRICITY   = .00032021
INCLINATION    = 69.9997
RA_OF_ASC_NODE = 175.9947
ARG_OF_PERICENTER = 273.7875
MEAN_ANOMALY   = 82.7270

EPHEMERIS_TYPE = 0
CLASSIFICATION_TYPE = U
NORAD_CAT_ID   = 66832
ELEMENT_SET_NO = 999
REV_AT_EPOCH   = 421
BSTAR          = .13623494E-2
MEAN_MOTION_DOT = .84389E-3
MEAN_MOTION_DDOT = 0

CCSDS_OMM_VERS = 2.0
CREATION_DATE  = 
ORIGINATOR     = 

OBJECT_NAME    = STARLINK-35858
OBJECT_ID      = 2025-280N
CENTER_NAME    = EARTH
REF_FRAME      = TEME
TIME_SYSTEM    = UTC
MEAN_ELEMENT_THEORY = SGP/SGP4

EPOCH          = 2025-12-20T22:00:01.999584
MEAN_MOTION    = 15.52473319
ECCENTRICITY   = .00031987
INCLINATION    = 69.9996
RA_OF_ASC_NODE = 175.9928
ARG_OF_PERICENTER = 269.2051
MEAN_ANOMALY   = 89.2179

EPHEMERIS_TYPE = 0
CLASSIFICATION_TYPE = U
NORAD_CAT_ID   = 66833
ELEMENT_SET_NO = 999
REV_AT_EPOCH   = 421
BSTAR          = .13844664E-2
MEAN_MOTION_DOT = .85789E-3
MEAN_MOTION_DDOT = 0

CCSDS_OMM_VERS = 2.0
CREATION_DATE  = 
ORIGINATOR     = 

OBJECT_NAME    = STARLINK-35840
OBJECT_ID      = 2025-280P
CENTER_NAME    = EARTH
REF_FRAME      = TEME
TIME_SYSTEM    = UTC
MEAN_ELEMENT_THEORY = SGP/SGP4

EPOCH          = 2025-12-20T22:00:01.999584
MEAN_MOTION    = 15.52481130
ECCENTRICITY   = .00031117
INCLINATION    = 69.9998
RA_OF_ASC_NODE = 175.9901
ARG_OF_PERICENTER = 270.3497
MEAN_ANOMALY   = 89.9796

EPHEMERIS_TYPE = 0
CLASSIFICATION_TYPE = U
NORAD_CAT_ID   = 66834
ELEMENT_SET_NO = 999
REV_AT_EPOCH   = 421
BSTAR          = .12374288E-2
MEAN_MOTION_DOT = .76591E-3
MEAN_MOTION_DDOT = 0

CCSDS_OMM_VERS = 2.0
CREATION_DATE  = 
ORIGINATOR     = 

OBJECT_NAME    = STARLINK-35890
OBJECT_ID      = 2025-280Q
CENTER_NAME    = EARTH
REF_FRAME      = TEME
TIME_SYSTEM    = UTC
MEAN_ELEMENT_THEORY = SGP/SGP4

EPOCH          = 2025-12-20T22:00:01.999584
MEAN_MOTION    = 15.52474583
ECCENTRICITY   = .00031186
INCLINATION    = 69.9999
RA_OF_ASC_NODE = 175.9877
ARG_OF_PERICENTER = 273.0924
MEAN_ANOMALY   = 89.1639

EPHEMERIS_TYPE = 0
CLASSIFICATION_TYPE = U
NORAD_CAT_ID   = 66835
ELEMENT_SET_NO = 999
REV_AT_EPOCH   = 421
BSTAR          = .13023187E-2
MEAN_MOTION_DOT = .80639E-3
MEAN_MOTION_DDOT = 0

CCSDS_OMM_VERS = 2.0
CREATION_DATE  = 
ORIGINATOR     = 

OBJECT_NAME    = STARLINK-35838
OBJECT_ID      = 2025-280R
CENTER_NAME    = EARTH
REF_FRAME      = TEME
TIME_SYSTEM    = UTC
MEAN_ELEMENT_THEORY = SGP/SGP4

EPOCH          = 2025-12-20T22:00:01.999584
MEAN_MOTION    = 15.52469770
ECCENTRICITY   = .00030796
INCLINATION    = 70.0000
RA_OF_ASC_NODE = 175.9851
ARG_OF_PERICENTER = 273.5362
MEAN_ANOMALY   = 90.6457

EPHEMERIS_TYPE = 0
CLASSIFICATION_TYPE = U
NORAD_CAT_ID   = 66836
ELEMENT_SET_NO = 999
REV_AT_EPOCH   = 421
BSTAR          = .13195285E-2
MEAN_MOTION_DOT = .81703E-3
MEAN_MOTION_DDOT = 0

CCSDS_OMM_VERS = 2.0
CREATION_DATE  = 
ORIGINATOR     = 

OBJECT_NAME    = STARLINK-35729
OBJECT_ID      = 2025-280S
CENTER_NAME    = EARTH
REF_FRAME      = TEME
TIME_SYSTEM    = UTC
MEAN_ELEMENT_THEORY = SGP/SGP4

EPOCH          = 2025-12-20T22:00:01.999584
MEAN_MOTION    = 15.52469875
ECCENTRICITY   = .00034743
INCLINATION    = 70.0001
RA_OF_ASC_NODE = 175.9826
ARG_OF_PERICENTER = 274.3429
MEAN_ANOMALY   = 91.7536

EPHEMERIS_TYPE = 0
CLASSIFICATION_TYPE = U
NORAD_CAT_ID   = 66837
ELEMENT_SET_NO = 999
REV_AT_EPOCH   = 421
BSTAR          = .1351264E-2
MEAN_MOTION_DOT = .83697E-3
MEAN_MOTION_DDOT = 0

CCSDS_OMM_VERS = 2.0
CREATION_DATE  = 
ORIGINATOR     = 

OBJECT_NAME    = STARLINK-35886
OBJECT_ID      = 2025-280T
CENTER_NAME    = EARTH
REF_FRAME      = TEME
TIME_SYSTEM    = UTC
MEAN_ELEMENT_THEORY = SGP/SGP4

EPOCH          = 2025-12-20T22:00:01.999584
MEAN_MOTION    = 15.52451919
ECCENTRICITY   = .00028382
INCLINATION    = 70.0001
RA_OF_ASC_NODE = 175.9778
ARG_OF_PERICENTER = 280.2720
MEAN_ANOMALY   = 89.7178

EPHEMERIS_TYPE = 0
CLASSIFICATION_TYPE = U
NORAD_CAT_ID   = 66838
ELEMENT_SET_NO = 999
REV_AT_EPOCH   = 421
BSTAR          = .13336814E-2
MEAN_MOTION_DOT = .82535E-3
MEAN_MOTION_DDOT = 0

CCSDS_OMM_VERS = 2.0
CREATION_DATE  = 
ORIGINATOR     = 

OBJECT_NAME    = STARLINK-35717
OBJECT_ID      = 2025-280U
CENTER_NAME    = EARTH
REF_FRAME      = TEME
TIME_SYSTEM    = UTC
MEAN_ELEMENT_THEORY = SGP/SGP4

EPOCH          = 2025-12-20T22:00:01.999584
MEAN_MOTION    = 15.52469758
ECCENTRICITY   = .00031987
INCLINATION    = 70.0000
RA_OF_ASC_NODE = 175.9787
ARG_OF_PERICENTER = 271.7932
MEAN_ANOMALY   = 96.2128

EPHEMERIS_TYPE = 0
CLASSIFICATION_TYPE = U
NORAD_CAT_ID   = 66839
ELEMENT_SET_NO = 999
REV_AT_EPOCH   = 421
BSTAR          = .15131696E-2
MEAN_MOTION_DOT = .93863E-3
MEAN_MOTION_DDOT = 0

CCSDS_OMM_VERS = 2.0
CREATION_DATE  = 
ORIGINATOR     = 

OBJECT_NAME    = STARLINK-35837
OBJECT_ID      = 2025-280V
CENTER_NAME    = EARTH
REF_FRAME      = TEME
TIME_SYSTEM    = UTC
MEAN_ELEMENT_THEORY = SGP/SGP4

EPOCH          = 2025-12-20T22:00:01.999584
MEAN_MOTION    = 15.52469565
ECCENTRICITY   = .00031168
INCLINATION    = 69.9999
RA_OF_ASC_NODE = 175.9748
ARG_OF_PERICENTER = 273.5111
MEAN_ANOMALY   = 98.3283

EPHEMERIS_TYPE = 0
CLASSIFICATION_TYPE = U
NORAD_CAT_ID   = 66840
ELEMENT_SET_NO = 999
REV_AT_EPOCH   = 421
BSTAR          = .14783884E-2
MEAN_MOTION_DOT = .91675E-3
MEAN_MOTION_DDOT = 0

CCSDS_OMM_VERS = 2.0
CREATION_DATE  = 
ORIGINATOR     = 

OBJECT_NAME    = STARLINK-35715
OBJECT_ID      = 2025-280W
CENTER_NAME    = EARTH
REF_FRAME      = TEME
TIME_SYSTEM    = UTC
MEAN_ELEMENT_THEORY = SGP/SGP4

EPOCH          = 2025-12-20T22:00:01.999584
MEAN_MOTION    = 15.52470187
ECCENTRICITY   = .00031023
INCLINATION    = 69.9999
RA_OF_ASC_NODE = 175.9737
ARG_OF_PERICENTER = 272.7851
MEAN_ANOMALY   = 100.9768

EPHEMERIS_TYPE = 0
CLASSIFICATION_TYPE = U
NORAD_CAT_ID   = 66841
ELEMENT_SET_NO = 999
REV_AT_EPOCH   = 421
BSTAR          = .1339982E-2
MEAN_MOTION_DOT = .82987E-3
MEAN_MOTION_DDOT = 0

CCSDS_OMM_VERS = 2.0
CREATION_DATE  = 
ORIGINATOR     = 

OBJECT_NAME    = STARLINK-35769
OBJECT_ID      = 2025-280X
CENTER_NAME    = EARTH
REF_FRAME      = TEME
TIME_SYSTEM    = UTC
MEAN_ELEMENT_THEORY = SGP/SGP4

EPOCH          = 2025-12-20T22:00:01.999584
MEAN_MOTION    = 15.52469999
ECCENTRICITY   = .00030039
INCLINATION    = 70.0000
RA_OF_ASC_NODE = 175.9714
ARG_OF_PERICENTER = 270.7996
MEAN_ANOMALY   = 104.8801

EPHEMERIS_TYPE = 0
CLASSIFICATION_TYPE = U
NORAD_CAT_ID   = 66842
ELEMENT_SET_NO = 999
REV_AT_EPOCH   = 421
BSTAR          = .13355123E-2
MEAN_MOTION_DOT = .82705E-3
MEAN_MOTION_DDOT = 0

CCSDS_OMM_VERS = 2.0
CREATION_DATE  = 
ORIGINATOR     = 

OBJECT_NAME    = STARLINK-35997
OBJECT_ID      = 2025-280Y
CENTER_NAME    = EARTH
REF_FRAME      = TEME
TIME_SYSTEM    = UTC
MEAN_ELEMENT_THEORY = SGP/SGP4

EPOCH          = 2025-12-20T22:00:01.999584
MEAN_MOTION    = 15.52472478
ECCENTRICITY   = .0003057
INCLINATION    = 70.0001
RA_OF_ASC_NODE = 175.9659
ARG_OF_PERICENTER = 273.6272
MEAN_ANOMALY   = 105.8813

EPHEMERIS_TYPE = 0
CLASSIFICATION_TYPE = U
NORAD_CAT_ID   = 66843
ELEMENT_SET_NO = 999
REV_AT_EPOCH   = 421
BSTAR          = .12994115E-2
MEAN_MOTION_DOT = .8045E-3
MEAN_MOTION_DDOT = 0

